NORAD_CAT_ID,OBJECT_NAME,OBJECT_TYPE,EPOCH,MEAN_MOTION,ECCENTRICITY,INCLINATION,RA_OF_ASC_NODE,ARG_OF_PERICENTER,MEAN_ANOMALY,BSTAR,MEAN_MOTION_DOT,MEAN_MOTION_DDOT,TLE_LINE0,TLE_LINE1,TLE_LINE2,SEMIMAJOR_AXIS,PERIOD,APOGEE,PERIGEE,DECAYED
56789.0,STARLINK-6325,PAYLOAD,2023-11-04 11:47:50,15.69934402,0.0002747,69.9991,331.2658,261.211,98.8774,3.5924e-05,4.111e-05,0.0,0 STARLINK-6325,1 56789U 23078Y   23308.49156089  .00004111  00000-0  35924-4 0  9997,2 56789  69.9991 331.2658 0002747 261.2110  98.8774 15.69934402 25396,6737.222,91.724,360.937,357.236,0.0
56789.0,STARLINK-6325,PAYLOAD,2023-11-05 10:44:08,15.69925445,0.0002853,69.9978,328.5759,279.4985,80.5888,6.4453e-06,5.63e-06,0.0,0 STARLINK-6325,1 56789U 23078Y   23309.44731888  .00000563  00000-0  64453-5 0  9996,2 56789  69.9978 328.5759 0002853 279.4985  80.5888 15.69925445 25134,6737.247,91.724,361.034,357.19,0.0
56789.0,STARLINK-6325,PAYLOAD,2023-11-05 18:22:55,15.69909879,0.0002538,69.9991,327.68,282.244,77.8471,3.4246e-06,1.99e-06,0.0,0 STARLINK-6325,1 56789U 23078Y   23309.76591460  .00000199  00000-0  34246-5 0  9993,2 56789  69.9991 327.6800 0002538 282.2440  77.8471 15.69909879 25189,6737.292,91.725,360.867,357.447,0.0
56789.0,STARLINK-6325,PAYLOAD,2023-11-06 03:33:24,15.69929512,0.0003793,69.9965,326.603,285.2727,74.8049,6.3512e-06,5.51e-06,0.0,0 STARLINK-6325,1 56789U 23078Y   23310.14820071  .00000551  00000-0  63512-5 0  9990,2 56789  69.9965 326.6030 0003793 285.2727  74.8049 15.69929512 25240,6737.236,91.724,361.656,356.545,0.0
56789.0,STARLINK-6325,PAYLOAD,2023-11-06 11:12:13,15.69879998,0.0002647,69.9971,325.7093,280.9182,79.1716,-5.7913e-05,-7.156e-05,0.0,0 STARLINK-6325,1 56789U 23078Y   23310.46682796 -.00007156  00000-0 -57913-4 0  9992,2 56789  69.9971 325.7093 0002647 280.9182  79.1716 15.69879998 25296,6737.377,91.727,361.026,357.459,0.0
56789.0,STARLINK-6325,PAYLOAD,2023-11-06 18:50:59,15.69892683,0.0002777,70.0002,324.8142,266.2876,93.8002,-5.2207e-05,-6.476e-05,0.0,0 STARLINK-6325,1 56789U 23078Y   23310.78540604 -.00006476  00000-0 -52207-4 0  9993,2 56789  70.0002 324.8142 0002777 266.2876  93.8002 15.69892683 25343,6737.341,91.726,361.077,357.335,0.0
56789.0,STARLINK-6325,PAYLOAD,2023-11-07 04:01:27,15.6993143,0.0002748,69.9988,323.7379,270.504,89.5841,-1.0759e-05,-1.506e-05,0.0,0 STARLINK-6325,1 56789U 23078Y   23311.16767680 -.00001506  00000-0 -10759-4 0  9996,2 56789  69.9988 323.7379 0002748 270.5040  89.5841 15.69931430 25406,6737.23,91.724,360.947,357.244,0.0
56789.0,STARLINK-6325,PAYLOAD,2023-11-07 11:40:11,15.69948348,0.0003057,69.9971,322.8437,267.0928,92.9917,5.4755e-06,4.46e-06,0.0,0 STARLINK-6325,1 56789U 23078Y   23311.48624267  .00000446  00000-0  54755-5 0  9999,2 56789  69.9971 322.8437 0003057 267.0928  92.9917 15.69948348 25456,6737.182,91.723,361.106,356.987,0.0
56789.0,STARLINK-6325,PAYLOAD,2023-11-07 17:47:13,15.69921224,0.0002868,69.999,322.1265,275.3039,84.7829,1.4237e-05,1.499e-05,0.0,0 STARLINK-6325,1 56789U 23078Y   23311.74112569  .00001499  00000-0  14237-4 0  9994,2 56789  69.9990 322.1265 0002868 275.3039  84.7829 15.69921224 25492,6737.259,91.724,361.057,357.192,0.0
56789.0,STARLINK-6325,PAYLOAD,2023-11-08 10:36:29,15.69925359,0.0002297,69.9992,320.1561,258.5186,101.5751,6.3953e-06,5.57e-06,0.0,0 STARLINK-6325,1 56789U 23078Y   23312.44200920  .00000557  00000-0  63953-5 0  9995,2 56789  69.9992 320.1561 0002297 258.5186 101.5751 15.69925359 26017,6737.248,91.724,360.66,357.565,0.0
56789.0,STARLINK-6325,PAYLOAD,2023-11-08 18:15:15,15.69895692,0.0002621,69.9996,319.2601,275.8349,84.2548,5.8353e-05,6.801e-05,0.0,0 STARLINK-6325,1 56789U 23078Y   23312.76060079  .00006801  00000-0  58353-4 0  9994,2 56789  69.9996 319.2601 0002621 275.8349  84.2548 15.69895692 25655,6737.332,91.726,360.963,357.432,0.0
56789.0,STARLINK-6325,PAYLOAD,2023-11-09 03:25:46,15.69924751,0.0002798,69.9993,318.1857,251.0949,108.9943,1.2153e-05,1.249e-05,0.0,0 STARLINK-6325,1 56789U 23078Y   23313.14289499  .00001249  00000-0  12153-4 0  9995,2 56789  69.9993 318.1857 0002798 251.0949 108.9943 15.69924751 25719,6737.249,91.724,360.999,357.229,0.0
56789.0,STARLINK-6325,PAYLOAD,2023-11-09 11:03:50,15.70503049,0.0004221,69.9999,317.2906,330.4857,29.61,0.00063691,0.00078983,0.0,0 STARLINK-6325,1 56789U 23078Y   23313.46099914  .00078983  00000-0  63691-3 0  9992,2 56789  69.9999 317.2906 0004221 330.4857  29.6100 15.70503049 25767,6735.595,91.69,360.303,354.617,0.0
56789.0,STARLINK-6325,PAYLOAD,2023-11-10 03:53:47,15.69467499,0.0005035,69.9999,315.3221,274.8168,85.2452,-0.00065962,-0.00077366,0.0,0 STARLINK-6325,1 56789U 23078Y   23314.16235259 -.00077366  00000-0 -65962-3 0  9993,2 56789  69.9999 315.3221 0005035 274.8168  85.2452 15.69467499 25872,6738.558,91.751,363.816,357.03,0.0
56789.0,STARLINK-6325,PAYLOAD,2023-11-10 10:01:50,15.69091798,0.0004029,70.0006,314.6072,278.4889,81.585,-0.00096371,-0.00110732,0.0,0 STARLINK-6325,1 56789U 23078Y   23314.41794386 -.00110732  00000-0 -96371-3 0  9995,2 56789  70.0006 314.6072 0004029 278.4889  81.5850 15.69091798 25913,6739.633,91.773,364.214,358.783,0.0
56789.0,STARLINK-6325,PAYLOAD,2023-11-10 20:00:01,15.69872969,0.0003477,70.0,313.4325,268.557,282.6004,0.00078972,0.00095632,0.0,0 STARLINK-6325,1 56789U 23078Y   23314.83334491  .00095632  00000-0  78972-3 0  9994,2 56789  70.0000 313.4325 0003477 268.5570 282.6004 15.69872969 25976,6737.397,91.727,361.605,356.92,0.0
56789.0,STARLINK-6325,PAYLOAD,2023-11-10 22:00:00,15.69893531,0.0003465,70.0,313.1983,267.7227,34.2572,0.00059662,0.00072054,0.0,0 STARLINK-6325,1 56789U 23078Y   23314.91667824  .00072054  00000-0  59662-3 0  9990,2 56789  70.0000 313.1983 0003465 267.7227  34.2572 15.69893531  6046,6737.339,91.726,361.538,356.869,0.0
56789.0,STARLINK-6325,PAYLOAD,2023-11-11 02:50:05,15.69900877,0.000252,70.0,312.6336,251.612,108.4802,5.5382e-05,6.445e-05,0.0,0 STARLINK-6325,1 56789U 23078Y   23315.11811827  .00006445  00000-0  55382-4 0  9994,2 56789  70.0000 312.6336 0002520 251.6120 108.4802 15.69900877 26029,6737.318,91.726,360.88,357.485,0.0
56789.0,STARLINK-6325,PAYLOAD,2023-11-11 08:57:06,15.69879288,0.0002774,69.9997,311.9163,243.5052,116.5859,9.1907e-05,0.00010831,0.0,0 STARLINK-6325,1 56789U 23078Y   23315.37298824  .00010831  00000-0  91907-4 0  9995,2 56789  69.9997 311.9163 0002774 243.5052 116.5859 15.69879288 26478,6737.379,91.727,361.113,357.375,0.0
56789.0,STARLINK-6325,PAYLOAD,2023-11-11 22:42:51,15.69940686,0.0002626,70.0001,310.3032,271.24,88.8495,-1.8496e-05,-2.437e-05,0.0,0 STARLINK-6325,1 56789U 23078Y   23315.94642966 -.00002437  00000-0 -18496-4 0  9995,2 56789  70.0001 310.3032 0002626 271.2400  88.8495 15.69940686 26564,6737.204,91.723,360.838,357.3,0.0
56789.0,STARLINK-6325,PAYLOAD,2023-11-12 03:18:07,15.69921164,0.0002444,69.9996,309.7658,246.7186,113.3752,-3.3453e-05,-4.231e-05,0.0,0 STARLINK-6325,1 56789U 23078Y   23316.13759113 -.00004231  00000-0 -33453-4 0  9994,2 56789  69.9996 309.7658 0002444 246.7186 113.3752 15.69921164 26184,6737.26,91.724,360.771,357.478,0.0
56789.0,STARLINK-6325,PAYLOAD,2023-11-12 09:25:07,15.69941531,0.000241,70.0001,309.0487,277.9439,82.1483,-1.3144e-05,-1.793e-05,0.0,0 STARLINK-6325,1 56789U 23078Y   23316.39244247 -.00001793  00000-0 -13144-4 0  9994,2 56789  70.0001 309.0487 0002410 277.9439  82.1483 15.69941531 26226,6737.201,91.723,360.69,357.443,0.0
56789.0,STARLINK-6325,PAYLOAD,2023-11-13 02:14:23,15.69921905,0.0003162,69.9994,307.0793,273.8635,86.2199,2.904e-06,1.37e-06,0.0,0 STARLINK-6325,1 56789U 23078Y   23317.09333172  .00000137  00000-0  29040-5 0  9990,2 56789  69.9994 307.0793 0003162 273.8635  86.2199 15.69921905 26334,6737.257,91.724,361.253,356.992,0.0
56789.0,STARLINK-6325,PAYLOAD,2023-11-13 08:21:24,15.69917975,0.0003223,69.9992,306.363,273.2518,86.8309,-4.5252e-06,-7.57e-06,0.0,0 STARLINK-6325,1 56789U 23078Y   23317.34820317 -.00000757  00000-0 -45252-5 0  9993,2 56789  69.9992 306.3630 0003223 273.2518  86.8309 15.69917975 26786,6737.269,91.725,361.305,356.962,0.0
56789.0,STARLINK-6325,PAYLOAD,2023-11-14 02:42:25,15.69923301,0.0002527,69.9997,304.2122,257.3833,102.708,6.2432e-06,5.38e-06,0.0,0 STARLINK-6325,1 56789U 23078Y   23318.11279818  .00000538  00000-0  62432-5 0  9997,2 56789  69.9997 304.2122 0002527 257.3833 102.7080 15.69923301 26495,6737.253,91.724,360.821,357.416,0.0
56789.0,STARLINK-6325,PAYLOAD,2023-11-14 08:49:26,15.69916468,0.0002892,69.999,303.496,267.9702,92.1163,1.7241e-05,1.86e-05,0.0,0 STARLINK-6325,1 56789U 23078Y   23318.36766693  .00001860  00000-0  17241-4 0  9992,2 56789  69.9990 303.4960 0002892 267.9702  92.1163 15.69916468 26946,6737.273,91.725,361.086,357.19,0.0
56789.0,STARLINK-6325,PAYLOAD,2023-11-15 09:17:28,15.6991747,0.0003466,69.9994,300.6279,254.3325,105.7488,1.2831e-05,1.33e-05,0.0,0 STARLINK-6325,1 56789U 23078Y   23319.38713265  .00001330  00000-0  12831-4 0  9994,2 56789  69.9994 300.6279 0003466 254.3325 105.7488 15.69917470 26698,6737.27,91.725,361.47,356.8,0.0
56789.0,STARLINK-6325,PAYLOAD,2023-11-16 08:13:45,15.69919205,0.0003103,69.9997,297.942,260.4917,99.5928,4.5471e-06,3.34e-06,0.0,0 STARLINK-6325,1 56789U 23078Y   23320.34288626  .00000334  00000-0  45471-5 0  9990,2 56789  69.9997 297.9420 0003103 260.4917  99.5928 15.69919205 27250,6737.265,91.724,361.221,357.04,0.0
56789.0,STARLINK-6325,PAYLOAD,2023-11-16 15:52:30,15.69922545,0.000309,70.0001,297.0457,272.5305,87.5537,9.4093e-06,9.19e-06,0.0,0 STARLINK-6325,1 56789U 23078Y   23320.66146791  .00000919  00000-0  94093-5 0  9994,2 56789  70.0001 297.0457 0003090 272.5305  87.5537 15.69922545 26893,6737.256,91.724,361.202,357.039,0.0
56789.0,STARLINK-6325,PAYLOAD,2023-11-17 01:03:02,15.6990732,0.000217,70.0015,295.9724,263.7138,96.3811,2.3736e-06,7.3e-07,0.0,0 STARLINK-6325,1 56789U 23078Y   23321.04378209  .00000073  00000-0  23736-5 0  9995,2 56789  70.0015 295.9724 0002170 263.7138  96.3811 15.69907320 26950,6737.299,91.725,360.626,357.702,0.0
